{
  "type": "FeatureCollection",
  "features": [
    {
      "type": "Feature",
      "properties": {
        "norad_id": 34389,
        "name": "COSMOS 2251 DEB",
        "group": "cosmos-2251-debris",
        "lat": 11.128013655596204,
        "lon": 60.784032093767486,
        "alt_km": 774.9960120865353,
        "timestamp": "2025-12-15T20:48:54.278566+00:00",
        "meta_object_name": "COSMOS 2251 DEB",
        "meta_object_id": "1993-036QE",
        "meta_epoch": "2025-12-14T21:05:27.665952",
        "meta_mean_motion": 14.41538004,
        "meta_eccentricity": 0.00290008,
        "meta_inclination": 74.0186,
        "meta_ra_of_asc_node": 245.8478,
        "meta_arg_of_pericenter": 357.4876,
        "meta_mean_anomaly": 82.9749,
        "meta_ephemeris_type": 0,
        "meta_classification_type": "U",
        "meta_norad_cat_id": 34389,
        "meta_element_set_no": 999,
        "meta_rev_at_epoch": 88043,
        "meta_bstar": 0.00039204218,
        "meta_mean_motion_dot": 1.254e-05,
        "meta_mean_motion_ddot": 0,
        "tle_line1": "1 34389U 93036QE  25348.87879243  .00001254  00000+0  39204-3 0  9990",
        "tle_line2": "2 34389  74.0186 245.8478 0029000 357.4876  82.9749 14.41538004880436"
      },
      "geometry": {
        "type": "Point",
        "coordinates": [
          60.784032093767486,
          11.128013655596204
        ]
      }
    },
    {
      "type": "Feature",
      "properties": {
        "norad_id": 34396,
        "name": "COSMOS 2251 DEB",
        "group": "cosmos-2251-debris",
        "lat": 69.52614575632101,
        "lon": -112.17432059735728,
        "alt_km": 637.3051042927646,
        "timestamp": "2025-12-15T20:48:54.278577+00:00",
        "meta_object_name": "COSMOS 2251 DEB",
        "meta_object_id": "1993-036QM",
        "meta_epoch": "2025-12-14T18:50:05.807616",
        "meta_mean_motion": 14.74489575,
        "meta_eccentricity": 0.00056783,
        "meta_inclination": 74.0274,
        "meta_ra_of_asc_node": 120.0366,
        "meta_arg_of_pericenter": 160.4262,
        "meta_mean_anomaly": 318.7953,
        "meta_ephemeris_type": 0,
        "meta_classification_type": "U",
        "meta_norad_cat_id": 34396,
        "meta_element_set_no": 999,
        "meta_rev_at_epoch": 88376,
        "meta_bstar": 0.0018560134,
        "meta_mean_motion_dot": 0.00012333,
        "meta_mean_motion_ddot": 0,
        "tle_line1": "1 34396U 93036QM  25348.78478944  .00012333  00000+0  18560-2 0  9992",
        "tle_line2": "2 34396  74.0274 120.0366 0005678 160.4262 318.7953 14.74489575883768"
      },
      "geometry": {
        "type": "Point",
        "coordinates": [
          -112.17432059735728,
          69.52614575632101
        ]
      }
    },
    {
      "type": "Feature",
      "properties": {
        "norad_id": 34400,
        "name": "COSMOS 2251 DEB",
        "group": "cosmos-2251-debris",
        "lat": -72.95952123473643,
        "lon": -93.79098970444323,
        "alt_km": 406.08081240951014,
        "timestamp": "2025-12-15T20:48:54.278587+00:00",
        "meta_object_name": "COSMOS 2251 DEB",
        "meta_object_id": "1993-036QR",
        "meta_epoch": "2025-12-14T12:47:35.882880",
        "meta_mean_motion": 15.54396424,
        "meta_eccentricity": 0.00047322,
        "meta_inclination": 73.9647,
        "meta_ra_of_asc_node": 19.3856,
        "meta_arg_of_pericenter": 264.7013,
        "meta_mean_anomaly": 95.3662,
        "meta_ephemeris_type": 0,
        "meta_classification_type": "U",
        "meta_norad_cat_id": 34400,
        "meta_element_set_no": 999,
        "meta_rev_at_epoch": 90002,
        "meta_bstar": 0.002932461,
        "meta_mean_motion_dot": 0.0019738,
        "meta_mean_motion_ddot": 0,
        "tle_line1": "1 34400U 93036QR  25348.53305420  .00197380  00000+0  29325-2 0  9996",
        "tle_line2": "2 34400  73.9647  19.3856 0004732 264.7013  95.3662 15.54396424900025"
      },
      "geometry": {
        "type": "Point",
        "coordinates": [
          -93.79098970444323,
          -72.95952123473643
        ]
      }
    },
    {
      "type": "Feature",
      "properties": {
        "norad_id": 34409,
        "name": "COSMOS 2251 DEB",
        "group": "cosmos-2251-debris",
        "lat": 10.337399149748292,
        "lon": 117.91046350114607,
        "alt_km": 751.8169490119271,
        "timestamp": "2025-12-15T20:48:54.278598+00:00",
        "meta_object_name": "COSMOS 2251 DEB",
        "meta_object_id": "1993-036RA",
        "meta_epoch": "2025-12-14T21:05:40.864416",
        "meta_mean_motion": 14.58031955,
        "meta_eccentricity": 0.0079942,
        "meta_inclination": 74.0633,
        "meta_ra_of_asc_node": 302.7744,
        "meta_arg_of_pericenter": 16.5297,
        "meta_mean_anomaly": 6.5746,
        "meta_ephemeris_type": 0,
        "meta_classification_type": "U",
        "meta_norad_cat_id": 34409,
        "meta_element_set_no": 999,
        "meta_rev_at_epoch": 89224,
        "meta_bstar": 0.00028083106,
        "meta_mean_motion_dot": 1.318e-05,
        "meta_mean_motion_ddot": 0,
        "tle_line1": "1 34409U 93036RA  25348.87894519  .00001318  00000+0  28083-3 0  9990",
        "tle_line2": "2 34409  74.0633 302.7744 0079942  16.5297   6.5746 14.58031955892247"
      },
      "geometry": {
        "type": "Point",
        "coordinates": [
          117.91046350114607,
          10.337399149748292
        ]
      }
    },
    {
      "type": "Feature",
      "properties": {
        "norad_id": 34410,
        "name": "COSMOS 2251 DEB",
        "group": "cosmos-2251-debris",
        "lat": 5.024514404291341,
        "lon": 73.60381376223995,
        "alt_km": 507.1031437686388,
        "timestamp": "2025-12-15T20:48:54.278608+00:00",
        "meta_object_name": "COSMOS 2251 DEB",
        "meta_object_id": "1993-036RB",
        "meta_epoch": "2025-12-14T19:02:15.879840",
        "meta_mean_motion": 15.19166719,
        "meta_eccentricity": 0.00217807,
        "meta_inclination": 73.7357,
        "meta_ra_of_asc_node": 257.3634,
        "meta_arg_of_pericenter": 98.5915,
        "meta_mean_anomaly": 324.1244,
        "meta_ephemeris_type": 0,
        "meta_classification_type": "U",
        "meta_norad_cat_id": 34410,
        "meta_element_set_no": 999,
        "meta_rev_at_epoch": 89805,
        "meta_bstar": 0.0018921656,
        "meta_mean_motion_dot": 0.00040227,
        "meta_mean_motion_ddot": 0,
        "tle_line1": "1 34410U 93036RB  25348.79323935  .00040227  00000+0  18922-2 0  9994",
        "tle_line2": "2 34410  73.7357 257.3634 0021780  98.5915 324.1244 15.19166719898057"
      },
      "geometry": {
        "type": "Point",
        "coordinates": [
          73.60381376223995,
          5.024514404291341
        ]
      }
    },
    {
      "type": "Feature",
      "properties": {
        "norad_id": 34412,
        "name": "COSMOS 2251 DEB",
        "group": "cosmos-2251-debris",
        "lat": -68.44326037797659,
        "lon": -174.48576163630685,
        "alt_km": 864.6048497707361,
        "timestamp": "2025-12-15T20:48:54.278619+00:00",
        "meta_object_name": "COSMOS 2251 DEB",
        "meta_object_id": "1993-036RD",
        "meta_epoch": "2025-12-14T08:48:08.280000",
        "meta_mean_motion": 14.47159952,
        "meta_eccentricity": 0.01872111,
        "meta_inclination": 73.9482,
        "meta_ra_of_asc_node": 321.5499,
        "meta_arg_of_pericenter": 56.2457,
        "meta_mean_anomaly": 305.6379,
        "meta_ephemeris_type": 0,
        "meta_classification_type": "U",
        "meta_norad_cat_id": 34412,
        "meta_element_set_no": 999,
        "meta_rev_at_epoch": 87674,
        "meta_bstar": 0.0015851699,
        "meta_mean_motion_dot": 7.185e-05,
        "meta_mean_motion_ddot": 0,
        "tle_line1": "1 34412U 93036RD  25348.36676250  .00007185  00000+0  15852-2 0  9995",
        "tle_line2": "2 34412  73.9482 321.5499 0187211  56.2457 305.6379 14.47159952876743"
      },
      "geometry": {
        "type": "Point",
        "coordinates": [
          -174.48576163630685,
          -68.44326037797659
        ]
      }
    },
    {
      "type": "Feature",
      "properties": {
        "norad_id": 34413,
        "name": "COSMOS 2251 DEB",
        "group": "cosmos-2251-debris",
        "lat": -4.442446666695896,
        "lon": 80.47263772315684,
        "alt_km": 854.4583703178232,
        "timestamp": "2025-12-15T20:48:54.278630+00:00",
        "meta_object_name": "COSMOS 2251 DEB",
        "meta_object_id": "1993-036RE",
        "meta_epoch": "2025-12-14T20:43:49.201824",
        "meta_mean_motion": 14.29118202,
        "meta_eccentricity": 0.00909237,
        "meta_inclination": 74.0304,
        "meta_ra_of_asc_node": 261.0198,
        "meta_arg_of_pericenter": 337.0862,
        "meta_mean_anomaly": 86.9961,
        "meta_ephemeris_type": 0,
        "meta_classification_type": "U",
        "meta_norad_cat_id": 34413,
        "meta_element_set_no": 999,
        "meta_rev_at_epoch": 87161,
        "meta_bstar": 0.001091427,
        "meta_mean_motion_dot": 2.868e-05,
        "meta_mean_motion_ddot": 0,
        "tle_line1": "1 34413U 93036RE  25348.86376391  .00002868  00000+0  10914-2 0  9991",
        "tle_line2": "2 34413  74.0304 261.0198 0090923 337.0862  86.9961 14.29118202871616"
      },
      "geometry": {
        "type": "Point",
        "coordinates": [
          80.47263772315684,
          -4.442446666695896
        ]
      }
    }
  ]
}